satname,norad_id,inclination_deg,eccentricity,mean_motion_rev_per_day,perigee_km,apogee_km,l1,l2
STARLINK-1357,45565,53.0625,0.0005552,15.30037246,471.89581570845803,479.50631749761305,1 45565U 20025AL  25292.31606766  .00095531  00000+0  32112-2 0  9992,2 45565  53.0625 348.4207 0005552 281.9109  78.1268 15.30037246304249
STARLINK-1361,45567,53.0553,0.0001446,15.06403821,546.1984434402584,548.2012508564549,1 45567U 20025AN  25291.51063014  .00002039  00000+0  15571-3 0  9990,2 45567  53.0553   4.8845 0001446  89.7190 270.3965 15.06403821303949
STARLINK-1363,45568,53.0552,0.0001126,15.20552663,503.39752212475287,504.9474182174363,1 45568U 20025AP  25292.33336806  .01586381  00000+0  64939-1 0  9992,2 45568  53.0552   1.0381 0001126  74.4393 194.0726 15.20552663  5653
STARLINK-1366,45569,53.0547,0.0001391,15.23576226,494.1080199474163,496.02014448848786,1 45569U 20025AQ  25292.33336806  .01589603  00000+0  59554-1 0  9990,2 45569  53.0547   0.6284 0001391 105.0555 308.9244 15.23576226  5600
STARLINK-1376,45570,53.0573,0.0001484,15.06411452,546.1487429126428,548.2041759474014,1 45570U 20025AR  25291.90501014  .00002893  00000+0  21295-3 0  9992,2 45570  53.0573   3.1168 0001484  98.5039 261.6118 15.06411452303994
STARLINK-1320,45572,53.0582,0.000947,15.40331796,438.6676626431017,451.59092900739597,1 45572U 20025AT  25292.33599269  .00148777  00000+0  35680-2 0  9995,2 45572  53.0582 307.5314 0009470 323.7501  36.2860 15.40331796304834
STARLINK-1321,45573,53.0564,0.0001374,15.06416461,546.2095718434903,548.1126437635148,1 45573U 20025AU  25291.89118855  .00003057  00000+0  22397-3 0  9997,2 45573  53.0564 353.1763 0001374  90.7980 269.3167 15.06416461303830
STARLINK-1328,45576,53.0529,0.0009537,15.63632126,370.7330710798742,383.618154357373,1 45576U 20025AX  25292.33336806  .00100590  00000+0  10519-2 0  9990,2 45576  53.0529 332.6595 0009537 347.3606  33.3791 15.63632126  5791
STARLINK-1331,45578,53.057,0.0001762,15.06413299,545.950559484414,548.3910379526833,1 45578U 20025AZ  25291.86908520  .00005179  00000+0  36620-3 0  9996,2 45578  53.0570 353.2786 0001762  89.9831 270.1360 15.06413299304140
STARLINK-1333,45580,53.0554,0.0001333,15.06420295,546.2262167131848,548.0724980560635,1 45580U 20025BB  25291.94187170  .00003562  00000+0  25774-3 0  9990,2 45580  53.0554   2.9482 0001333 100.2897 259.8242 15.06420295304001
STARLINK-1335,45581,53.0587,0.0001556,15.06411624,546.0983535892619,548.2535109737883,1 45581U 20025BC  25291.88013745  .00001611  00000+0  12698-3 0  9994,2 45581  53.0587 353.2283 0001556 102.3091 257.8072 15.06411624304134
STARLINK-1337,45582,53.0554,0.0001497,15.06397353,546.1829447303262,548.2563965175113,1 45582U 20025BD  25291.90224880  .00016031  00000+0  10928-2 0  9997,2 45582  53.0554 353.1292 0001497 100.1825 259.9333 15.06397353304138
STARLINK-1347,45586,53.0556,0.000531,15.29278837,474.3262854481545,481.6074677651113,1 45586U 20025BH  25292.30681377  .00101686  00000+0  34952-2 0  9998,2 45586  53.0556 338.8796 0005310 298.2439  61.8024 15.29278837304363
STARLINK-1360,45588,53.0455,0.0006126,15.72351201,348.05623436215956,356.3022178023557,1 45588U 20025BK  25292.19792676  .00151661  00000+0  11037-2 0  9999,2 45588  53.0455 261.8957 0006126  75.2101 284.9595 15.72351201305448
STARLINK-1364,45589,53.0557,0.0001404,15.06416434,546.1888786871532,548.1335024190612,1 45589U 20025BL  25291.90593937  .00009454  00000+0  65243-3 0  9998,2 45589  53.0557 353.1150 0001404  83.1736 276.9412 15.06416434304139
STARLINK-1365,45590,53.0523,0.0001813,15.06400468,545.9545581525463,548.4656890195583,1 45590U 20025BM  25291.98795317  .00002555  00000+0  19038-3 0  9990,2 45590  53.0523  22.7395 0001813  97.3976 262.7219 15.06400468303745
STARLINK-1443,45660,53.0554,0.0001251,15.06426715,546.2633306591033,547.99603238282,1 45660U 20035D   25292.30493513  .00020296  00000+0  13765-2 0  9991,2 45660  53.0554 341.3222 0001251  76.9505 283.1624 15.06426715297420
STARLINK-1446,45663,53.0261,0.0001273,15.32162311,468.4905300794835,470.23390338006266,1 45663U 20035G   25292.26266850  .00100877  00000+0  31724-2 0  9990,2 45663  53.0261 306.7336 0001273 270.2375  89.8479 15.32162311297907
STARLINK-1448,45665,53.0553,0.0001233,15.06414232,546.3140491524646,548.021829350484,1 45665U 20035J   25292.30861283  .00003533  00000+0  25588-3 0  9991,2 45665  53.0553 341.3003 0001233  92.3965 267.7165 15.06414232297411
STARLINK-1451,45668,53.0559,0.0001563,15.06442859,545.9977929413681,548.1626158394602,1 45668U 20035M   25292.31234583  .00015708  00000+0  10699-2 0  9995,2 45668  53.0559 341.6035 0001563  87.6158 272.5010 15.06442859297425
STARLINK-1452,45669,53.0391,0.0008862,15.25169881,484.188574113351,496.36214818225017,1 45669U 20035N   25292.31052287  .00105866  00000+0  41163-2 0  9990,2 45669  53.0391 324.2450 0008862 330.3815  29.6679 15.25169881297665
STARLINK-1453,45670,53.0539,0.0001303,15.06418282,546.2531611917966,548.0578924242827,1 45670U 20035P   25292.32244087  .00004143  00000+0  29670-3 0  9990,2 45670  53.0539 311.2433 0001303  96.1764 263.9373 15.06418282297734
STARLINK-1454,45671,53.0565,0.0001601,15.06420862,546.0388815832457,548.2563577184583,1 45671U 20035Q   25292.13538245  .00017024  00000+0  11584-2 0  9998,2 45671  53.0565 342.0840 0001601  96.3924 263.7247 15.06420862297385
STARLINK-1456,45673,53.0552,0.0001511,15.06433526,546.0624028410475,548.1552121240684,1 45673U 20035S   25292.28281649  .00016703  00000+0  11365-2 0  9999,2 45673  53.0552 341.4215 0001511  98.7487 261.3673 15.06433526297425
STARLINK-1457,45674,53.0564,0.0001506,15.06432006,546.0705231745969,548.1564086149237,1 45674U 20035T   25292.29019078  .00010474  00000+0  72039-3 0  9991,2 45674  53.0564 341.3869 0001506  94.5445 265.5716 15.06432006297397
STARLINK-1458,45675,53.0559,0.0001418,15.06439827,546.1074994914625,548.0714937259008,1 45675U 20035U   25292.27912858  .00018875  00000+0  12813-2 0  9994,2 45675  53.0559 341.4348 0001418  93.6274 266.4877 15.06439827297382
STARLINK-1460,45676,53.0552,0.0001398,15.0642162,546.1771420795612,548.1134510096754,1 45676U 20035V   25292.31598723  .00020572  00000+0  13951-2 0  9992,2 45676  53.0552 341.2697 0001398 104.2275 255.8869 15.06421620297383
STARLINK-1392,45677,53.0565,0.0001585,15.06407469,546.0910025054336,548.2863307417529,1 45677U 20035W   25292.12800358 -.00002414  00000+0 -14318-3 0  9998,2 45677  53.0565 342.1175 0001585  91.9998 268.1173 15.06407469297392
STARLINK-1394,45679,53.0549,0.0001236,15.06423474,546.2836502538439,547.9955786329347,1 45679U 20035Y   25292.25794203  .00013979  00000+0  95488-3 0  9998,2 45679  53.0549 331.5311 0001236  89.8577 270.2554 15.06423474297551
STARLINK-1402,45685,53.0547,0.0001304,15.16365699,515.9364224376595,517.7346312726631,1 45685U 20035AE  25292.33336806  .00928472  00000+0  43671-1 0  9993,2 45685  53.0547 325.3458 0001304  56.8860 325.3070 15.16365699  5809
STARLINK-1404,45686,53.0549,0.0001428,15.06419259,546.1636011606961,548.1414638511806,1 45686U 20035AF  25292.28374229  .00008227  00000+0  57023-3 0  9994,2 45686  53.0549 331.4180 0001428  97.8010 262.3141 15.06419259297567
STARLINK-1413,45689,53.0553,0.0001673,15.06416393,546.0027138016194,548.3199186182228,1 45689U 20035AJ  25292.30217390  .00009260  00000+0  63945-3 0  9993,2 45689  53.0553 331.3310 0001673 100.8879 259.2298 15.06416393297473
STARLINK-1417,45693,53.0558,0.0001575,15.06425534,546.0425709388383,548.2240310836569,1 45693U 20035AN  25292.29848843  .00007243  00000+0  50433-3 0  9996,2 45693  53.0558 331.3526 0001575  90.5613 269.5557 15.06425534297552
STARLINK-1420,45695,53.0542,0.0001388,15.0642124,546.1852318178671,548.1076905066866,1 45695U 20035AQ  25292.29937991  .00002008  00000+0  15356-3 0  9990,2 45695  53.0542 311.3354 0001388  94.3874 265.7274 15.06421240297843
STARLINK-1422,45696,53.0545,0.0001475,15.06429232,546.100491819514,548.1434432149308,1 45696U 20035AR  25292.30954156  .00006942  00000+0  48408-3 0  9990,2 45696  53.0545 331.3018 0001475  88.6381 271.4777 15.06429232297551
STARLINK-1351,45697,53.0547,0.0001413,15.06412252,546.1954611320252,548.1525540227658,1 45697U 20035AS  25292.28558384  .00004437  00000+0  31644-3 0  9992,2 45697  53.0547 311.4071 0001413  85.4089 274.7061 15.06412252297842
STARLINK-1398,45699,53.0501,0.0001678,15.47721923,422.2506671098654,424.5332602300732,1 45699U 20035AU  25292.19488398  .00185187  00000+0  34448-2 0  9997,2 45699  53.0501 275.2371 0001678  30.8509 329.2597 15.47721923298347
STARLINK-1400,45700,53.0557,0.0001675,15.06392268,546.0752556532307,548.395255358826,1 45700U 20035AV  25292.32614533 -.00002374  00000+0 -14054-3 0  9997,2 45700  53.0557 311.2264 0001675  90.1718 269.9463 15.06392268297848
STARLINK-1403,45701,53.054,0.0001493,15.0640789,546.1534254008047,548.2213272595764,1 45701U 20035AW  25292.28927139  .00003843  00000+0  27672-3 0  9992,2 45701  53.0540 311.3903 0001493  85.5160 274.5999 15.06407890297832
STARLINK-1407,45703,53.0422,0.0011265,15.38752573,442.1053124646678,457.4886477218188,1 45703U 20035AY  25292.22272556  .00152341  00000+0  38436-2 0  9991,2 45703  53.0422 273.2360 0011265   4.9690 355.1423 15.38752573298371
STARLINK-1411,45706,53.0542,0.000174,15.37310473,452.87754842609047,455.25515519251894,1 45706U 20035BB  25292.33336806  .00158027  00000+0  41820-2 0  9993,2 45706  53.0542 299.7397 0001740  66.1656 185.8805 15.37310473  5779
STARLINK-1423,45710,53.0536,0.0001297,15.06432113,546.2149330239081,548.0113429096964,1 45710U 20035BF  25292.31507357  .00008458  00000+0  58549-3 0  9996,2 45710  53.0536 311.2778 0001297  86.6215 273.4922 15.06432113297842
STARLINK-1433,45711,53.0544,0.0001505,15.06416505,546.1187156073693,548.2032302972275,1 45711U 20035BG  25292.29664189  .00009999  00000+0  68889-3 0  9990,2 45711  53.0544 311.3569 0001505  97.1372 262.9788 15.06416505297833
